satname,norad_id,inclination_deg,eccentricity,mean_motion_rev_per_day,perigee_km,apogee_km,l1,l2
STARLINK-1331,45578,53.054,0.0001823,15.06426227,545.8687007381841,548.3936535155644,1 45578U 20025AZ  25320.72998175  .00004398  00000+0  31376-3 0  9994,2 45578  53.0540 223.7148 0001823  78.4271 281.6923 15.06426227308498
STARLINK-1333,45580,53.0551,0.0001771,15.06398609,545.9893411715902,548.4423011408435,1 45580U 20025BB  25320.73645912  .00002577  00000+0  19182-3 0  9994,2 45580  53.0551 233.6847 0001771  93.4796 266.6395 15.06398609308342
STARLINK-1335,45581,53.0571,0.0002024,15.06391066,545.8372434067178,548.6406355870267,1 45581U 20025BC  25320.74105322  .00001824  00000+0  14138-3 0  9992,2 45581  53.0571 223.6684 0002024  76.3150 283.8064 15.06391066308488
STARLINK-1337,45582,53.0516,0.000157,15.06410123,546.0932577223839,548.2678074276128,1 45582U 20025BD  25320.43142169  .00007613  00000+0  52929-3 0  9991,2 45582  53.0516 225.0555 0001570  72.8344 287.2817 15.06410123308437
STARLINK-1347,45586,53.0544,0.0007539,15.33837699,459.2164580116969,469.53359764725883,1 45586U 20025BH  25320.68861507  .00021283  00000+0  65021-3 0  9992,2 45586  53.0544 206.4004 0007539  69.7585 290.4226 15.33837699308719
STARLINK-1360,45588,53.0422,0.0002285,15.79795795,329.4856827654321,332.5517669316878,1 45588U 20025BK  25320.91668980  .00219124  00000+0  11404-2 0  9998,2 45588  53.0422 118.6612 0002285 210.1824  84.0442 15.79795795  6044
STARLINK-1364,45589,53.0539,0.0001495,15.06421459,546.1104601975703,548.1811197517736,1 45589U 20025BL  25320.76684398  .00004184  00000+0  29943-3 0  9999,2 45589  53.0539 223.5504 0001495  83.7294 276.3866 15.06421459308489
STARLINK-1365,45590,53.0552,0.000165,15.0640369,546.0575679967951,548.3429292888468,1 45590U 20025BM  25320.84887356  .00001577  00000+0  12473-3 0  9992,2 45590  53.0552 253.1792 0001650  84.2849 275.8328 15.06403690308090
STARLINK-1443,45660,53.0535,0.0001907,15.06409464,545.8618938545778,548.503210731823,1 45660U 20035D   25320.70143120  .00002640  00000+0  19599-3 0  9998,2 45660  53.0535 213.8451 0001907  82.6624 277.4582 15.06409464301708
STARLINK-1446,45663,53.0253,0.0002178,15.34913453,459.68797240513504,462.66717783405693,1 45663U 20035G   25320.60898951  .00023084  00000+0  68101-3 0  9997,2 45663  53.0253 173.9512 0002178 101.5570 258.5676 15.34913453302258
STARLINK-1448,45665,53.0518,0.0001482,15.06403867,546.1733712657269,548.2260410654344,1 45665U 20035J   25320.43972125  .00017360  00000+0  11813-2 0  9993,2 45665  53.0518 215.0174 0001482  78.5400 281.5755 15.06403867301657
STARLINK-1451,45668,53.0543,0.0002489,15.0642581,545.4087555676424,548.8561547024092,1 45668U 20035M   25320.70883413  .00011992  00000+0  82199-3 0  9998,2 45668  53.0543 214.1361 0002489  64.6906 295.4340 15.06425810301703
STARLINK-1452,45669,53.0389,0.0012235,15.28025192,473.32332412409505,490.1093852830554,1 45669U 20035N   25320.65694387  .00020429  00000+0  74664-3 0  9996,2 45669  53.0389 192.9202 0012235  76.5275 283.7086 15.28025192301991
STARLINK-1453,45670,53.0509,0.0001514,15.06539771,545.7347801534679,547.8316459939861,1 45670U 20035P   25320.65250492  .00030143  00000+0  20262-2 0  9991,2 45670  53.0509 184.0613 0001514  53.0172 307.0956 15.06539771302007
STARLINK-1454,45671,53.0545,0.0001628,15.06405366,546.0676679021135,548.3225560377714,1 45671U 20035Q   25320.73091303 -.00002911  00000+0 -17657-3 0  9994,2 45671  53.0545 213.7124 0001628  85.5090 274.6084 15.06405366301697
STARLINK-1456,45673,53.0533,0.0001097,15.06402053,546.4455557495521,547.9649758426685,1 45673U 20035S   25320.67932057  .00012164  00000+0  83407-3 0  9994,2 45673  53.0533 213.9452 0001097  86.5601 273.5513 15.06402053301708
STARLINK-1457,45674,53.066,0.0001404,15.38575584,449.36188578050314,451.27931667492885,1 45674U 20035T   25320.91668980  .01044882  00000+0  24833-1 0  9992,2 45674  53.0660 210.8554 0001404 115.7629   9.9315 15.38575584  5691
STARLINK-1458,45675,53.0536,0.0001272,15.06405561,546.3136121580183,548.0754164952632,1 45675U 20035U   25320.67564097  .00008124  00000+0  56357-3 0  9996,2 45675  53.0536 213.9594 0001272  94.3024 265.8110 15.06405561301660
STARLINK-1460,45676,53.0534,0.0001491,15.06400931,546.1761355142862,548.2412736033857,1 45676U 20035V   25320.71248333  .00015404  00000+0  10508-2 0  9990,2 45676  53.0534 213.7931 0001491  90.6791 269.4368 15.06400931301666
STARLINK-1392,45677,53.0563,0.0001959,15.06386739,545.8955175469664,548.6088850360329,1 45677U 20035W   25320.72354145  .00010011  00000+0  69024-3 0  9998,2 45677  53.0563 213.7489 0001959  94.2635 265.8578 15.06386739301700
STARLINK-1394,45679,53.0545,0.0001469,15.0640435,546.1808941021973,548.2155575915513,1 45679U 20035Y   25320.72078274 -.00002422  00000+0 -14375-3 0  9994,2 45679  53.0545 203.7554 0001469  87.4792 272.6366 15.06404350301844
STARLINK-1402,45685,53.0534,0.0003838,15.28347839,478.11843132221657,483.38331365313934,1 45685U 20035AE  25320.76269653  .00040137  00000+0  14391-2 0  9998,2 45685  53.0534 193.9095 0003838 132.3474 227.7850 15.28347839301995
STARLINK-1404,45686,53.0535,0.0001127,15.06428166,546.344757496121,547.9057116037884,1 45686U 20035AF  25320.41484042  .00011558  00000+0  79294-3 0  9991,2 45686  53.0535 205.1321 0001127  97.9506 262.1611 15.06428166301803
STARLINK-1413,45689,53.0548,0.0001644,15.06406254,546.053866243551,548.330914547113,1 45689U 20035AJ  25320.69865961  .00010085  00000+0  69484-3 0  9991,2 45689  53.0548 203.8536 0001644  82.5558 277.5618 15.06406254301759
STARLINK-1417,45693,53.0527,0.0001507,15.06415087,546.1216757826687,548.2089619015678,1 45693U 20035AN  25320.69497433  .00006465  00000+0  45233-3 0  9994,2 45693  53.0527 203.8743 0001507  84.9881 275.1280 15.06415087301836
STARLINK-1420,45695,53.0526,0.0001333,15.06395165,546.3032256184506,548.1495274946401,1 45695U 20035AQ  25320.62954025  .00011065  00000+0  76069-3 0  9997,2 45695  53.0526 184.1555 0001333  88.3714 271.7428 15.06395165302111
STARLINK-1422,45696,53.0549,0.0002758,15.0641827,545.2455678965307,549.0655592746043,1 45696U 20035AR  25320.70603729  .00010341  00000+0  71171-3 0  9994,2 45696  53.0549 203.8201 0002758 118.2032 241.9236 15.06418270301839
STARLINK-1351,45697,53.052,0.0001385,15.06410277,546.2209041796132,548.1392170053978,1 45697U 20035AS  25320.61573585  .00003711  00000+0  26784-3 0  9994,2 45697  53.0520 184.2309 0001385  83.4727 276.6420 15.06410277302110
STARLINK-1398,45699,53.0464,0.0005005,15.54676846,399.69815568029026,406.4861660703273,1 45699U 20035AU  25320.79485679  .00059389  00000+0  88066-3 0  9994,2 45699  53.0464 137.6800 0005005 156.9310 203.1926 15.54676846302782
STARLINK-1400,45700,53.0516,0.0001346,15.06395466,546.2933002438031,548.157607816428,1 45700U 20035AV  25320.65629218  .00010163  00000+0  70024-3 0  9993,2 45700  53.0516 184.0447 0001346  88.0653 272.0490 15.06395466302116
STARLINK-1403,45701,53.0529,0.0001592,15.06420513,546.0461837793746,548.2511947428357,1 45701U 20035AW  25320.35403901  .00008382  00000+0  58063-3 0  9999,2 45701  53.0529 185.4040 0001592  85.2021 274.9149 15.06420513302064
STARLINK-1407,45703,53.0391,0.0012346,15.43514524,427.3339291525408,444.15876991921596,1 45703U 20035AY  25320.23378724  .00034881  00000+0  76959-3 0  9999,2 45703  53.0391 140.5364 0012346 112.2985 247.9330 15.43514524302691
STARLINK-1411,45706,53.0512,0.0001817,15.43225717,435.35820882282314,437.83468295705825,1 45706U 20035BB  25320.31175344  .00058128  00000+0  12882-2 0  9998,2 45706  53.0512 167.3707 0001817 163.2646 196.8419 15.43225717302310
STARLINK-1423,45710,53.0575,0.000208,15.06419829,545.7103257164072,548.5912454352074,1 45710U 20035BF  25320.64522756  .00009533  00000+0  65768-3 0  9990,2 45710  53.0575 184.0957 0002080  85.6722 274.4505 15.06419829302117
STARLINK-1433,45711,53.0546,0.000133,15.06418783,546.2329276448309,548.0750550485291,1 45711U 20035BG  25319.89698751  .00017716  00000+0  12047-2 0  9998,2 45711  53.0546 187.4539 0001330  91.1684 268.9458 15.06418783301993
STARLINK-1434,45712,53.0499,0.0006985,15.16407299,511.8933749881953,521.5254754442221,1 45712U 20035BH  25320.35651862  .00012186  00000+0  63423-3 0  9995,2 45712  53.0499 180.4862 0006985 108.8846 251.2905 15.16407299302141
STARLINK-1465,45731,53.0564,0.0001409,15.06422071,546.1681422471538,548.1196864088115,1 45731U 20038B   25320.59359942  .00005213  00000+0  36835-3 0  9999,2 45731  53.0564  24.3245 0001409 112.5699 247.5439 15.06422071299149
STARLINK-1471,45735,53.051,0.0001039,15.41786825,440.1272526884668,441.54423522466186,1 45735U 20038F   25320.31062183  .00027117  00000+0  63820-3 0  9992,2 45735  53.0510 321.9796 0001039  70.7574 289.3543 15.41786825300004
STARLINK-1474,45738,53.035,0.0004357,15.702346,355.29093064616427,361.16099733298415,1 45738U 20038J   25320.91668980  .00067744  00000+0  54715-3 0  9991,2 45738  53.0350 273.1934 0004357  55.8517  15.3301 15.70234600  6023
STARLINK-1475,45739,53.0464,0.0006594,15.87919661,303.7073651070459,312.5251959333964,1 45739U 20038K   25320.91668980  .00358069  00000+0  12449-2 0  9992,2 45739  53.0464 238.0825 0006594  97.5182  57.6453 15.87919661  5981
STARLINK-1480,45741,53.0555,0.0001632,15.06418659,546.0241638291391,548.2845789327584,1 45741U 20038M   25320.57517448  .00008401  00000+0  58189-3 0  9993,2 45741  53.0555  24.4088 0001632  89.6703 270.4473 15.06418659299155
STARLINK-1500,45744,53.0412,0.0001309,15.28510321,479.36702851316113,481.1625581026492,1 45744U 20038Q   25320.52389615  .00026535  00000+0  95282-3 0  9997,2 45744  53.0412   0.9829 0001309 284.0754  76.0099 15.28510321299472
STARLINK-1504,45746,53.0294,0.0001813,15.41673804,439.9326682677347,442.4053486263974,1 45746U 20038S   25320.26583975  .00030449  00000+0  71780-3 0  9991,2 45746  53.0294 325.2992 0001813 341.4700  18.6238 15.41673804299945
